[{"OBJECT_NAME":"KUIPER-00063","OBJECT_ID":"2025-134Z","EPOCH":"2026-03-09T18:14:14.102880","MEAN_MOTION":14.79988084,"ECCENTRICITY":4.939e-5,"INCLINATION":51.9013,"RA_OF_ASC_NODE":237.7873,"ARG_OF_PERICENTER":113.8346,"MEAN_ANOMALY":246.2668,"EPHEMERIS_TYPE":0,"CLASSIFICATION_TYPE":"U","NORAD_CAT_ID":64523,"ELEMENT_SET_NO":999,"REV_AT_EPOCH":4001,"BSTAR":-0.0037038389,"MEAN_MOTION_DOT":-0.00028375,"MEAN_MOTION_DDOT":0},{"OBJECT_NAME":"CZ-6A DEB","OBJECT_ID":"2024-140TE","EPOCH":"2026-03-09T14:15:52.010208","MEAN_MOTION":14.60552911,"ECCENTRICITY":0.0091089,"INCLINATION":89.0388,"RA_OF_ASC_NODE":285.1287,"ARG_OF_PERICENTER":244.8325,"MEAN_ANOMALY":114.3421,"EPHEMERIS_TYPE":0,"CLASSIFICATION_TYPE":"U","NORAD_CAT_ID":61293,"ELEMENT_SET_NO":999,"REV_AT_EPOCH":8120,"BSTAR":0.0011803,"MEAN_MOTION_DOT":6.094e-5,"MEAN_MOTION_DDOT":0}]
